ONEWEB-0228             
1 48780U 21045P   23278.52277629 -.00000099  00000+0 -29761-3 0  9998
2 48780  87.8934  95.4342 0001844  85.0708 275.0632 13.15546608114730
